{"type": "FeatureCollection", "features": [ {"type": "Feature", "properties": {"norad_id": 31361, "name": "FENGYUN 1C DEB", "group": "fengyun-1c-debris", "lat": 7.433394573827648, "lon": -30.212143016167673, "alt_km": 808.3294968959262, "timestamp": "2025-12-21T22:41:41.741919+00:00", "meta": {"OBJECT_NAME": "FENGYUN 1C DEB", "OBJECT_ID": "1999-025BRR", "EPOCH": "2025-12-20T09:23:48.416640", "MEAN_MOTION": 14.17749362, "ECCENTRICITY": 0.00459663, "INCLINATION": 98.5514, "RA_OF_ASC_NODE": 329.4165, "ARG_OF_PERICENTER": 49.0881, "MEAN_ANOMALY": 311.4261, "EPHEMERIS_TYPE": 0, "CLASSIFICATION_TYPE": "U", "NORAD_CAT_ID": 31361, "ELEMENT_SET_NO": 999, "REV_AT_EPOCH": 96672, "BSTAR": 0.0001051526, "MEAN_MOTION_DOT": 1.75e-06, "MEAN_MOTION_DDOT": 0}, "tle": {"line1": "1 31361U 99025BRR 25354.39153260  .00000175  00000+0  10515-3 0  9994", "line2": "2 31361  98.5514 329.4165 0045966  49.0881 311.4261 14.17749362966720"}}, "geometry": {"type": "Point", "coordinates": [-30.212143016167673, 7.433394573827648]}}, {"type": "Feature", "properties": {"norad_id": 31362, "name": "FENGYUN 1C DEB", "group": "fengyun-1c-debris", "lat": -26.581638146698843, "lon": -5.578339149016928, "alt_km": 841.5637807440507, "timestamp": "2025-12-21T22:41:41.741930+00:00", "meta": {"OBJECT_NAME": "FENGYUN 1C DEB", "OBJECT_ID": "1999-025BRS", "EPOCH": "2025-12-20T19:42:50.989536", "MEAN_MOTION": 14.17383986, "ECCENTRICITY": 0.00192382, "INCLINATION": 98.6527, "RA_OF_ASC_NODE": 348.9576, "ARG_OF_PERICENTER": 73.5763, "MEAN_ANOMALY": 286.7525, "EPHEMERIS_TYPE": 0, "CLASSIFICATION_TYPE": "U", "NORAD_CAT_ID": 31362, "ELEMENT_SET_NO": 999, "REV_AT_EPOCH": 96690, "BSTAR": 0.00012611764, "MEAN_MOTION_DOT": 2.13e-06, "MEAN_MOTION_DDOT": 0}, "tle": {"line1": "1 31362U 99025BRS 25354.82142349  .00000213  00000+0  12612-3 0  9992", "line2": "2 31362  98.6527 348.9576 0019238  73.5763 286.7525 14.17383986966905"}}, "geometry": {"type": "Point", "coordinates": [-5.578339149016928, -26.581638146698843]}}, {"type": "Feature", "properties": {"norad_id": 31364, "name": "FENGYUN 1C DEB", "group": "fengyun-1c-debris", "lat": -79.91631391392114, "lon": -130.6549897209799, "alt_km": 903.6360306505885, "timestamp": "2025-12-21T22:41:41.741940+00:00", "meta": {"OBJECT_NAME": "FENGYUN 1C DEB", "OBJECT_ID": "1999-025BRU", "EPOCH": "2025-12-21T06:10:20.136000", "MEAN_MOTION": 14.14738988, "ECCENTRICITY": 0.0092857, "INCLINATION": 99.2629, "RA_OF_ASC_NODE": 115.2208, "ARG_OF_PERICENTER": 125.1925, "MEAN_ANOMALY": 235.7986, "EPHEMERIS_TYPE": 0, "CLASSIFICATION_TYPE": "U", "NORAD_CAT_ID": 31364, "ELEMENT_SET_NO": 999, "REV_AT_EPOCH": 94997, "BSTAR": 0.0020572, "MEAN_MOTION_DOT": 4.086e-05, "MEAN_MOTION_DDOT": 0}, "tle": {"line1": "1 31364U 99025BRU 25355.25717750  .00004086  00000+0  20572-2 0  9991", "line2": "2 31364  99.2629 115.2208 0092857 125.1925 235.7986 14.14738988949972"}}, "geometry": {"type": "Point", "coordinates": [-130.6549897209799, -79.91631391392114]}}, {"type": "Feature", "properties": {"norad_id": 31365, "name": "FENGYUN 1C DEB", "group": "fengyun-1c-debris", "lat": 31.220569888351353, "lon": 75.83162775101668, "alt_km": 779.174323673371, "timestamp": "2025-12-21T22:41:41.741950+00:00", "meta": {"OBJECT_NAME": "FENGYUN 1C DEB", "OBJECT_ID": "1999-025BRV", "EPOCH": "2025-12-20T11:34:27.632064", "MEAN_MOTION": 14.41935663, "ECCENTRICITY": 0.00427638, "INCLINATION": 98.6748, "RA_OF_ASC_NODE": 79.6546, "ARG_OF_PERICENTER": 197.3619, "MEAN_ANOMALY": 162.611, "EPHEMERIS_TYPE": 0, "CLASSIFICATION_TYPE": "U", "NORAD_CAT_ID": 31365, "ELEMENT_SET_NO": 999, "REV_AT_EPOCH": 96740, "BSTAR": 0.0013176751, "MEAN_MOTION_DOT": 4.321e-05, "MEAN_MOTION_DDOT": 0}, "tle": {"line1": "1 31365U 99025BRV 25354.48226426  .00004321  00000+0  13177-2 0  9996", "line2": "2 31365  98.6748  79.6546 0042763 197.3619 162.6110 14.41935663967402"}}, "geometry": {"type": "Point", "coordinates": [75.83162775101668, 31.220569888351353]}}, {"type": "Feature", "properties": {"norad_id": 31367, "name": "FENGYUN 1C DEB", "group": "fengyun-1c-debris", "lat": 58.465496176462544, "lon": 85.0501612420554, "alt_km": 774.3698413426991, "timestamp": "2025-12-21T22:41:41.741960+00:00", "meta": {"OBJECT_NAME": "FENGYUN 1C DEB", "OBJECT_ID": "1999-025BRX", "EPOCH": "2025-12-21T04:35:30.442848", "MEAN_MOTION": 14.47523379, "ECCENTRICITY": 0.00989793, "INCLINATION": 98.7459, "RA_OF_ASC_NODE": 249.7415, "ARG_OF_PERICENTER": 351.0863, "MEAN_ANOMALY": 159.9822, "EPHEMERIS_TYPE": 0, "CLASSIFICATION_TYPE": "U", "NORAD_CAT_ID": 31367, "ELEMENT_SET_NO": 999, "REV_AT_EPOCH": 98588, "BSTAR": 0.00041696927, "MEAN_MOTION_DOT": 1.578e-05, "MEAN_MOTION_DDOT": 0}, "tle": {"line1": "1 31367U 99025BRX 25355.19132457  .00001578  00000+0  41697-3 0  9997", "line2": "2 31367  98.7459 249.7415 0098979 351.0863 159.9822 14.47523379985883"}}, "geometry": {"type": "Point", "coordinates": [85.0501612420554, 58.465496176462544]}}, {"type": "Feature", "properties": {"norad_id": 31369, "name": "FENGYUN 1C DEB", "group": "fengyun-1c-debris", "lat": -39.523045100257356, "lon": -15.837707453991722, "alt_km": 807.2002885693682, "timestamp": "2025-12-21T22:41:41.741970+00:00", "meta": {"OBJECT_NAME": "FENGYUN 1C DEB", "OBJECT_ID": "1999-025BRZ", "EPOCH": "2025-12-20T04:39:35.394624", "MEAN_MOTION": 14.19419635, "ECCENTRICITY": 0.00542184, "INCLINATION": 98.6195, "RA_OF_ASC_NODE": 335.2693, "ARG_OF_PERICENTER": 277.6645, "MEAN_ANOMALY": 97.1423, "EPHEMERIS_TYPE": 0, "CLASSIFICATION_TYPE": "U", "NORAD_CAT_ID": 31369, "ELEMENT_SET_NO": 999, "REV_AT_EPOCH": 64433, "BSTAR": 0.00020619755, "MEAN_MOTION_DOT": 3.97e-06, "MEAN_MOTION_DDOT": 0}, "tle": {"line1": "1 31369U 99025BRZ 25354.19415966  .00000397  00000+0  20620-3 0  9998", "line2": "2 31369  98.6195 335.2693 0054218 277.6645  97.1423 14.19419635644339"}}, "geometry": {"type": "Point", "coordinates": [-15.837707453991722, -39.523045100257356]}}, {"type": "Feature", "properties": {"norad_id": 31370, "name": "FENGYUN 1C DEB", "group": "fengyun-1c-debris", "lat": 46.62844412899438, "lon": -174.911266231167, "alt_km": 874.2088060078631, "timestamp": "2025-12-21T22:41:41.741980+00:00", "meta": {"OBJECT_NAME": "FENGYUN 1C DEB", "OBJECT_ID": "1999-025BSA", "EPOCH": "2025-12-18T10:35:51.641952", "MEAN_MOTION": 14.09714607, "ECCENTRICITY": 0.00331839, "INCLINATION": 98.7533, "RA_OF_ASC_NODE": 352.2955, "ARG_OF_PERICENTER": 281.205, "MEAN_ANOMALY": 78.5392, "EPHEMERIS_TYPE": 0, "CLASSIFICATION_TYPE": "U", "NORAD_CAT_ID": 31370, "ELEMENT_SET_NO": 999, "REV_AT_EPOCH": 96374, "BSTAR": 0.00035450044, "MEAN_MOTION_DOT": 5.82e-06, "MEAN_MOTION_DDOT": 0}, "tle": {"line1": "1 31370U 99025BSA 25352.44156993  .00000582  00000+0  35450-3 0  9991", "line2": "2 31370  98.7533 352.2955 0033183 281.2050  78.5392 14.09714607963740"}}, "geometry": {"type": "Point", "coordinates": [-174.911266231167, 46.62844412899438]}}, {"type": "Feature", "properties": {"norad_id": 31371, "name": "FENGYUN 1C DEB", "group": "fengyun-1c-debris", "lat": -42.767940293987735, "lon": -159.58525267411832, "alt_km": 828.1278719055281, "timestamp": "2025-12-21T22:41:41.741990+00:00", "meta": {"OBJECT_NAME": "FENGYUN 1C DEB", "OBJECT_ID": "1999-025BSB", "EPOCH": "2025-12-18T21:49:26.366880", "MEAN_MOTION": 14.04521226, "ECCENTRICITY": 0.00780785, "INCLINATION": 98.7654, "RA_OF_ASC_NODE": 25.6882, "ARG_OF_PERICENTER": 229.3308, "MEAN_ANOMALY": 130.1056, "EPHEMERIS_TYPE": 0, "CLASSIFICATION_TYPE": "U", "NORAD_CAT_ID": 31371, "ELEMENT_SET_NO": 999, "REV_AT_EPOCH": 95833, "BSTAR": 0.00050459747, "MEAN_MOTION_DOT": 7.85e-06, "MEAN_MOTION_DDOT": 0}, "tle": {"line1": "1 31371U 99025BSB 25352.90933295  .00000785  00000+0  50460-3 0  9994", "line2": "2 31371  98.7654  25.6882 0078078 229.3308 130.1056 14.04521226958335"}}, "geometry": {"type": "Point", "coordinates": [-159.58525267411832, -42.767940293987735]}}, {"type": "Feature", "properties": {"norad_id": 31372, "name": "FENGYUN 1C DEB", "group": "fengyun-1c-debris", "lat": -25.675594615572503, "lon": -7.812186821851865, "alt_km": 802.2809411878525, "timestamp": "2025-12-21T22:41:41.742000+00:00", "meta": {"OBJECT_NAME": "FENGYUN 1C DEB", "OBJECT_ID": "1999-025BSC", "EPOCH": "2025-12-19T22:00:06.230592", "MEAN_MOTION": 14.26585393, "ECCENTRICITY": 0.0033993, "INCLINATION": 99.3739, "RA_OF_ASC_NODE": 345.4622, "ARG_OF_PERICENTER": 54.791, "MEAN_ANOMALY": 305.6442, "EPHEMERIS_TYPE": 0, "CLASSIFICATION_TYPE": "U", "NORAD_CAT_ID": 31372, "ELEMENT_SET_NO": 999, "REV_AT_EPOCH": 95953, "BSTAR": 0.001089, "MEAN_MOTION_DOT": 2.595e-05, "MEAN_MOTION_DDOT": 0}, "tle": {"line1": "1 31372U 99025BSC 25353.91673878  .00002595  00000+0  10890-2 0  9998", "line2": "2 31372  99.3739 345.4622 0033993  54.7910 305.6442 14.26585393959538"}}, "geometry": {"type": "Point", "coordinates": [-7.812186821851865, -25.675594615572503]}}, {"type": "Feature", "properties": {"norad_id": 31376, "name": "FENGYUN 1C DEB", "group": "fengyun-1c-debris", "lat": -36.97107661278785, "lon": -80.4917792295295, "alt_km": 688.9338220825839, "timestamp": "2025-12-21T22:41:41.742010+00:00", "meta": {"OBJECT_NAME": "FENGYUN 1C DEB", "OBJECT_ID": "1999-025BSG", "EPOCH": "2025-12-20T23:52:06.832128", "MEAN_MOTION": 14.61857636, "ECCENTRICITY": 0.00485862, "INCLINATION": 98.8347, "RA_OF_ASC_NODE": 271.7689, "ARG_OF_PERICENTER": 242.8713, "MEAN_ANOMALY": 116.7526, "EPHEMERIS_TYPE": 0, "CLASSIFICATION_TYPE": "U", "NORAD_CAT_ID": 31376, "ELEMENT_SET_NO": 999, "REV_AT_EPOCH": 98263, "BSTAR": 0.0012592303, "MEAN_MOTION_DOT": 6.349e-05, "MEAN_MOTION_DDOT": 0}, "tle": {"line1": "1 31376U 99025BSG 25354.99452352  .00006349  00000+0  12592-2 0  9995", "line2": "2 31376  98.8347 271.7689 0048586 242.8713 116.7526 14.61857636982632"}}, "geometry": {"type": "Point", "coordinates": [-80.4917792295295, -36.97107661278785]}}]}